#aV2019 10 14  0  0  0.00000000     288 DD+AD WGS84 FIT  NGA
## 2075  86400.00000000   300.00000000 58770 0.0000000000000
+   31     1  2  3  5  6  7  8  9 10 11 12 13 14 15 16 17 18
+         19 20 21 22 23 24 25 26 27 28 29 30 31 32  0  0  0
+          0  0  0  0  0  0  0  0  0  0  0  0  0  0  0  0  0
+          0  0  0  0  0  0  0  0  0  0  0  0  0  0  0  0  0
+          0  0  0  0  0  0  0  0  0  0  0  0  0  0  0  0  0
++         2  2  2  2  2  2  2  2  2  2  2  2  2  2  2  2  2
++         2  2  2  2  2  2  2  2  2  2  2  2  2  2  0  0  0
++         0  0  0  0  0  0  0  0  0  0  0  0  0  0  0  0  0
++         0  0  0  0  0  0  0  0  0  0  0  0  0  0  0  0  0
++         0  0  0  0  0  0  0  0  0  0  0  0  0  0  0  0  0
%c cc cc ccc ccc cccc cccc cccc cccc ccccc ccccc ccccc ccccc
%c cc cc ccc ccc cccc cccc cccc cccc ccccc ccccc ccccc ccccc
%f  0.0000000  0.000000000  0.00000000000  0.000000000000000
%f  0.0000000  0.000000000  0.00000000000  0.000000000000000
%i    0    0    0    0      0      0      0      0         0
%i    0    0    0    0      0      0      0      0         0
/*      NGA, ST. LOUIS,MO.                                  
/*   EPHEMERIS COMPUTED FROM 2 DAYS OF DATA                 
/*   EPOCHA v5 SMOOTHER                                     
/*   G1762 IERS2010 SATAF SATAPC                            
*  2019 10 14 23 45  0.00000000
P  1 -21040.030939 -12385.214529  10634.328488   -162.786765                    
V  1  -7879.011977 -11327.077652 -27933.854480     -0.132290                    
P  2  12646.734558  21539.814760   9826.807630   -325.999156                    
V  2 -10053.405435  -6209.535219  28223.982218     -0.079223                    
P  3 -15084.477014  -2235.003816  21682.937161    -22.499768                    
V  3   7945.877843 -26504.832318   2874.950710     -0.048675                    
P  5   5500.091996  20987.169644 -15326.765824     -2.335581                    
V  5  -7434.014102  17983.845756  22352.887957     -0.003857                    
P  6   -382.545235  18509.520509  19076.775215    -90.613582                    
V  6 -17253.685029 -16865.751350  16078.386095     -0.128432                    
P  7 -16965.243048   2461.134165 -20126.403137   -127.229024                    
V  7 -16791.655163 -19976.912492  11080.532724     -0.080641                    
P  8 -19551.665050  -6999.772536 -16644.306883     -9.919608                    
V  8  20148.610316  -6426.356795 -20714.754307     -0.012880                    
P  9 -25366.841756   7628.708176  -2037.889898    -56.869308                    
V  9  -3177.195769  -2368.018230  31435.907809     -0.101311                    
P 10  11412.276655 -23091.376799  -5926.052846    -94.290590                    
V 10    451.177014   8142.131039 -30749.938838     -0.153943                    
P 11 -24958.523636  -8304.723438   1671.754473   -477.992874                    
V 11   -884.548833  -5341.557624 -30709.675980      0.112630                    
P 12  12549.165588   8001.280064  21794.938347    193.993125                    
V 12 -10332.851658  26153.409202  -3459.704071     -0.039021                    
P 13  10576.184208  13201.345325 -20611.548148    -38.818869                    
V 13 -25659.579255   3366.160907 -11006.506434      0.021791                    
P 14   4241.759004 -15664.513198  21321.489384    -56.093124                    
V 14  26184.676967  -3055.075944  -7751.131208      0.020476                    
P 15  20927.596724   5584.745825 -15908.448573   -279.860514                    
V 15 -17915.774456   8322.565565 -20638.811845      0.027073                    
P 16  -1483.328222 -22073.360747 -14553.593793    -83.352521                    
V 16   8660.497845 -16215.673131  24446.569722     -0.036145                    
P 17 -14623.200740  14194.893592  17404.639970    144.284887                    
V 17 -21172.565081   2343.059255 -20268.372268      0.069345                    
P 18 -19936.656560 -17450.407200   1992.878386     93.078914                    
V 18   -210.143416  -4276.079946 -31450.909176      0.027160                    
P 19  -8141.141506  14646.815241  20317.010658   -253.658976                    
V 19 -26310.086779   2360.978643 -12045.467530      0.052138                    
P 20  14282.854876 -16575.978063 -15030.777476    527.201889                    
V 20   -613.227865  19251.195567 -22149.187323      0.001188                    
P 21  13504.724782  -7618.573059 -20757.488204   -102.317696                    
V 21  19952.525785  20050.064658   5611.379279      0.061739                    
P 22 -13431.374039 -10502.649098  20602.596988   -763.943458                    
V 22   6649.537600 -24926.175081  -8364.365355     -0.032096                    
P 23 -25349.288760   -339.855976   8903.572543   -161.403296                    
V 23   9778.351842  -5193.127542  28374.730517      0.021422                    
P 24  21886.218200  12992.658092   8023.641171     -3.460642                    
V 24   5325.064601   9381.182331 -28761.093648     -0.005484                    
P 25  16277.640177  -8155.877822  19032.411501    -15.366249                    
V 25  -6009.798071  23987.690718  15498.223809     -0.009369                    
P 26   3669.204194 -25770.568871  -4750.212347     61.631494                    
V 26   4775.940363  -4952.757198  30846.749803      0.085832                    
P 27  -7609.727069 -13317.165887 -21829.901648    -87.715837                    
V 27  26620.327124  -6307.114030  -5164.265512     -0.122108                    
P 28 -12655.723440  22877.110296  -4386.572845    759.010396                    
V 28    425.048653  -6654.376684 -31464.058550     -0.013105                    
P 29  26217.128250  -4334.610977   -310.142639     71.154888                    
V 29    658.475462   1911.630964  32285.850273     -0.101378                    
P 30  -8807.631649  13417.772932 -21106.711855    -61.731543                    
V 30 -18052.814055 -20063.981217  -5407.844822     -0.082125                    
P 31   -677.598563 -19604.967028  17678.119509      3.636148                    
V 31  16366.167578  15778.167541  18557.085989     -0.025460                    
P 32  13913.925563 -15303.661073  16651.274884     91.547340                    
V 32  20977.518901  -2914.339027 -20406.526941      0.129313                    
EOF
